{
  "type": "FeatureCollection",
  "features": [
    {
      "type": "Feature",
      "properties": {
        "norad_id": 58701,
        "name": "TIANMU-1 16",
        "group": "weather",
        "lat": -25.09877720617035,
        "lon": 178.6554484252267,
        "alt_km": 497.02219894757127,
        "timestamp": "2025-12-20T07:33:50.444173+00:00",
        "meta_object_name": "TIANMU-1 16",
        "meta_object_id": "2024-004B",
        "meta_epoch": "2025-12-19T22:13:23.668896",
        "meta_mean_motion": 15.24522791,
        "meta_eccentricity": 0.00043128,
        "meta_inclination": 97.456,
        "meta_ra_of_asc_node": 174.7512,
        "meta_arg_of_pericenter": 263.3689,
        "meta_mean_anomaly": 96.7057,
        "meta_ephemeris_type": 0,
        "meta_classification_type": "U",
        "meta_norad_cat_id": 58701,
        "meta_element_set_no": 999,
        "meta_rev_at_epoch": 10844,
        "meta_bstar": 0.00020613329,
        "meta_mean_motion_dot": 4.999e-05,
        "meta_mean_motion_ddot": 0,
        "tle_line1": "1 58701U 24004B   25353.92596839  .00004999  00000+0  20613-3 0  9995",
        "tle_line2": "2 58701  97.4560 174.7512 0004312 263.3689  96.7057 15.24522791108447"
      },
      "geometry": {
        "type": "Point",
        "coordinates": [
          178.6554484252267,
          -25.09877720617035
        ]
      }
    },
    {
      "type": "Feature",
      "properties": {
        "norad_id": 58702,
        "name": "TIANMU-1 17",
        "group": "weather",
        "lat": 59.55115062794905,
        "lon": 162.67374353602264,
        "alt_km": 488.5494334470468,
        "timestamp": "2025-12-20T07:33:50.444184+00:00",
        "meta_object_name": "TIANMU-1 17",
        "meta_object_id": "2024-004C",
        "meta_epoch": "2025-12-19T23:25:25.743360",
        "meta_mean_motion": 15.24567099,
        "meta_eccentricity": 0.0003506,
        "meta_inclination": 97.4594,
        "meta_ra_of_asc_node": 175.2148,
        "meta_arg_of_pericenter": 265.3264,
        "meta_mean_anomaly": 94.7573,
        "meta_ephemeris_type": 0,
        "meta_classification_type": "U",
        "meta_norad_cat_id": 58702,
        "meta_element_set_no": 999,
        "meta_rev_at_epoch": 10844,
        "meta_bstar": 0.00019802987,
        "meta_mean_motion_dot": 4.806e-05,
        "meta_mean_motion_ddot": 0,
        "tle_line1": "1 58702U 24004C   25353.97599240  .00004806  00000+0  19803-3 0  9996",
        "tle_line2": "2 58702  97.4594 175.2148 0003506 265.3264  94.7573 15.24567099108442"
      },
      "geometry": {
        "type": "Point",
        "coordinates": [
          162.67374353602264,
          59.55115062794905
        ]
      }
    },
    {
      "type": "Feature",
      "properties": {
        "norad_id": 58703,
        "name": "TIANMU-1 18",
        "group": "weather",
        "lat": 28.09357320149639,
        "lon": -0.239175292047877,
        "alt_km": 491.67882027988526,
        "timestamp": "2025-12-20T07:33:50.444194+00:00",
        "meta_object_name": "TIANMU-1 18",
        "meta_object_id": "2024-004D",
        "meta_epoch": "2025-12-19T23:01:29.927424",
        "meta_mean_motion": 15.24551907,
        "meta_eccentricity": 0.0002865,
        "meta_inclination": 97.4611,
        "meta_ra_of_asc_node": 175.395,
        "meta_arg_of_pericenter": 263.4614,
        "meta_mean_anomaly": 96.6297,
        "meta_ephemeris_type": 0,
        "meta_classification_type": "U",
        "meta_norad_cat_id": 58703,
        "meta_element_set_no": 999,
        "meta_rev_at_epoch": 10844,
        "meta_bstar": 0.00018225261,
        "meta_mean_motion_dot": 4.415e-05,
        "meta_mean_motion_ddot": 0,
        "tle_line1": "1 58703U 24004D   25353.95937416  .00004415  00000+0  18225-3 0  9999",
        "tle_line2": "2 58703  97.4611 175.3950 0002865 263.4614  96.6297 15.24551907108445"
      },
      "geometry": {
        "type": "Point",
        "coordinates": [
          -0.239175292047877,
          28.09357320149639
        ]
      }
    },
    {
      "type": "Feature",
      "properties": {
        "norad_id": 58990,
        "name": "INSAT-3DS",
        "group": "weather",
        "lat": -0.025774474525621136,
        "lon": -75.29144498118579,
        "alt_km": 35781.45083258318,
        "timestamp": "2025-12-20T07:33:50.444206+00:00",
        "meta_object_name": "INSAT-3DS",
        "meta_object_id": "2024-033A",
        "meta_epoch": "2025-12-19T20:14:11.978016",
        "meta_mean_motion": 1.00272362,
        "meta_eccentricity": 0.00010886,
        "meta_inclination": 0.0523,
        "meta_ra_of_asc_node": 106.0423,
        "meta_arg_of_pericenter": 165.7027,
        "meta_mean_anomaly": 202.594,
        "meta_ephemeris_type": 0,
        "meta_classification_type": "U",
        "meta_norad_cat_id": 58990,
        "meta_element_set_no": 999,
        "meta_rev_at_epoch": 4527,
        "meta_bstar": 0,
        "meta_mean_motion_dot": -1.32e-06,
        "meta_mean_motion_ddot": 0,
        "tle_line1": "1 58990U 24033A   25353.84319419 -.00000132  00000+0  00000+0 0  9995",
        "tle_line2": "2 58990   0.0523 106.0423 0001088 165.7027 202.5940  1.00272362 45277"
      },
      "geometry": {
        "type": "Point",
        "coordinates": [
          -75.29144498118579,
          -0.025774474525621136
        ]
      }
    },
    {
      "type": "Feature",
      "properties": {
        "norad_id": 59051,
        "name": "METEOR-M2 4",
        "group": "weather",
        "lat": 64.82290984264432,
        "lon": -67.85285925153106,
        "alt_km": 810.883672659229,
        "timestamp": "2025-12-20T07:33:50.444217+00:00",
        "meta_object_name": "METEOR-M2 4",
        "meta_object_id": "2024-039A",
        "meta_epoch": "2025-12-19T22:48:45.277920",
        "meta_mean_motion": 14.22402324,
        "meta_eccentricity": 0.00066516,
        "meta_inclination": 98.6776,
        "meta_ra_of_asc_node": 310.7466,
        "meta_arg_of_pericenter": 337.3554,
        "meta_mean_anomaly": 22.733,
        "meta_ephemeris_type": 0,
        "meta_classification_type": "U",
        "meta_norad_cat_id": 59051,
        "meta_element_set_no": 999,
        "meta_rev_at_epoch": 9378,
        "meta_bstar": 2.056769e-05,
        "meta_mean_motion_dot": 2e-08,
        "meta_mean_motion_ddot": 0,
        "tle_line1": "1 59051U 24039A   25353.95052405  .00000002  00000+0  20568-4 0  9992",
        "tle_line2": "2 59051  98.6776 310.7466 0006651 337.3554  22.7330 14.22402324 93788"
      },
      "geometry": {
        "type": "Point",
        "coordinates": [
          -67.85285925153106,
          64.82290984264432
        ]
      }
    },
    {
      "type": "Feature",
      "properties": {
        "norad_id": 60133,
        "name": "GOES 19",
        "group": "weather",
        "lat": 0.0027580574346448973,
        "lon": 127.41692629026406,
        "alt_km": 35790.62898192422,
        "timestamp": "2025-12-20T07:33:50.444229+00:00",
        "meta_object_name": "GOES 19",
        "meta_object_id": "2024-119A",
        "meta_epoch": "2025-12-19T10:38:46.804128",
        "meta_mean_motion": 1.00271901,
        "meta_eccentricity": 0.0001077,
        "meta_inclination": 0.0077,
        "meta_ra_of_asc_node": 262.8367,
        "meta_arg_of_pericenter": 52.3942,
        "meta_mean_anomaly": 217.5699,
        "meta_ephemeris_type": 0,
        "meta_classification_type": "U",
        "meta_norad_cat_id": 60133,
        "meta_element_set_no": 999,
        "meta_rev_at_epoch": 516,
        "meta_bstar": 0,
        "meta_mean_motion_dot": -2.24e-06,
        "meta_mean_motion_ddot": 0,
        "tle_line1": "1 60133U 24119A   25353.44359727 -.00000224  00000+0  00000+0 0  9996",
        "tle_line2": "2 60133   0.0077 262.8367 0001077  52.3942 217.5699  1.00271901  5165"
      },
      "geometry": {
        "type": "Point",
        "coordinates": [
          127.41692629026406,
          0.0027580574346448973
        ]
      }
    },
    {
      "type": "Feature",
      "properties": {
        "norad_id": 65815,
        "name": "FENGYUN 3H",
        "group": "weather",
        "lat": -56.22465172827691,
        "lon": 100.57046263502961,
        "alt_km": 833.0561359489511,
        "timestamp": "2025-12-20T07:33:50.444240+00:00",
        "meta_object_name": "FENGYUN 3H",
        "meta_object_id": "2025-219A",
        "meta_epoch": "2025-12-19T21:59:40.130880",
        "meta_mean_motion": 14.19906476,
        "meta_eccentricity": 7.258e-05,
        "meta_inclination": 98.6594,
        "meta_ra_of_asc_node": 293.3512,
        "meta_arg_of_pericenter": 104.9091,
        "meta_mean_anomaly": 255.2166,
        "meta_ephemeris_type": 0,
        "meta_classification_type": "U",
        "meta_norad_cat_id": 65815,
        "meta_element_set_no": 999,
        "meta_rev_at_epoch": 1194,
        "meta_bstar": 3.9182334e-05,
        "meta_mean_motion_dot": 4e-07,
        "meta_mean_motion_ddot": 0,
        "tle_line1": "1 65815U 25219A   25353.91643670  .00000040  00000+0  39182-4 0  9998",
        "tle_line2": "2 65815  98.6594 293.3512 0000725 104.9091 255.2166 14.19906476 11940"
      },
      "geometry": {
        "type": "Point",
        "coordinates": [
          100.57046263502961,
          -56.22465172827691
        ]
      }
    }
  ]
}